ONEWEB-0698             
1 61604U 24188L   26116.47343524 -.00000408  00000+0 -11882-2 0  9993
2 61604  87.8923  31.3640 0002607  55.0809 305.0564 13.11416487 77693
ONEWEB-0699             
1 61605U 24188M   26116.52148185 -.00000655  00000+0 -19120-2 0  9993
2 61605  87.8849  46.5461 0001874  57.9817 302.1492 13.10373359 76545
ONEWEB-0700             
1 61606U 24188N   26116.29406139 -.00000562  00000+0 -16470-2 0  9996
2 61606  87.8868  46.4914 0001503  59.0913 301.0362 13.10373595 76500
ONEWEB-0701             
1 61607U 24188P   26116.31067477 -.00000113  00000+0 -36070-3 0  9999
2 61607  87.8849  46.5868 0001918  53.0810 307.0492 13.10376492 76519
ONEWEB-0702             
1 61608U 24188Q   26116.51920426 -.00000040  00000+0 -14968-3 0  9995
2 61608  87.8943  31.2511 0001517  44.9238 315.2013 13.11416589 77715
ONEWEB-0704             
1 61609U 24188R   26116.29903615  .00000006  00000+0 -17808-4 0  9990
2 61609  87.8867  46.5714 0001319  43.2144 316.9087 13.10371015 76499
ONEWEB-0705             
1 61610U 24188S   26116.30401299 -.00000490  00000+0 -14391-2 0  9995
2 61610  87.8861  46.5793 0000733  86.3908 273.7303 13.10372036 68662
ONEWEB-0706             
1 61611U 24188T   26116.51815499 -.00000547  00000+0 -16027-2 0  9991
2 61611  87.8849  46.5451 0001381  63.9900 296.1369 13.10371889 76613
ONEWEB-0707             
1 61612U 24188U   26116.52479709 -.00000618  00000+0 -18073-2 0  9995
2 61612  87.8856  46.5348 0001456  62.9075 297.2201 13.10372890 76555
ONEWEB-0708             
1 61613U 24188V   26116.31399947  .00000099  00000+0  24782-3 0  9994
2 61613  87.8852  46.6000 0001481  91.9794 268.1503 13.10375990 76507
