[{"OBJECT_NAME":"ONEWEB-0698","OBJECT_ID":"2024-188L","EPOCH":"2026-04-26T11:21:44.804736","MEAN_MOTION":13.11416487,"ECCENTRICITY":0.0002607,"INCLINATION":87.8923,"RA_OF_ASC_NODE":31.364,"ARG_OF_PERICENTER":55.0809,"MEAN_ANOMALY":305.0564,"EPHEMERIS_TYPE":0,"CLASSIFICATION_TYPE":"U","NORAD_CAT_ID":61604,"ELEMENT_SET_NO":999,"REV_AT_EPOCH":7769,"BSTAR":-0.0011882,"MEAN_MOTION_DOT":-4.08e-06,"MEAN_MOTION_DDOT":0.0},{"OBJECT_NAME":"ONEWEB-0699","OBJECT_ID":"2024-188M","EPOCH":"2026-04-26T12:30:56.031840","MEAN_MOTION":13.10373359,"ECCENTRICITY":0.0001874,"INCLINATION":87.8849,"RA_OF_ASC_NODE":46.5461,"ARG_OF_PERICENTER":57.9817,"MEAN_ANOMALY":302.1492,"EPHEMERIS_TYPE":0,"CLASSIFICATION_TYPE":"U","NORAD_CAT_ID":61605,"ELEMENT_SET_NO":999,"REV_AT_EPOCH":7654,"BSTAR":-0.001912,"MEAN_MOTION_DOT":-6.55e-06,"MEAN_MOTION_DDOT":0.0},{"OBJECT_NAME":"ONEWEB-0700","OBJECT_ID":"2024-188N","EPOCH":"2026-04-26T07:03:26.904096","MEAN_MOTION":13.10373595,"ECCENTRICITY":0.0001503,"INCLINATION":87.8868,"RA_OF_ASC_NODE":46.4914,"ARG_OF_PERICENTER":59.0913,"MEAN_ANOMALY":301.0362,"EPHEMERIS_TYPE":0,"CLASSIFICATION_TYPE":"U","NORAD_CAT_ID":61606,"ELEMENT_SET_NO":999,"REV_AT_EPOCH":7650,"BSTAR":-0.0016470000000000002,"MEAN_MOTION_DOT":-5.62e-06,"MEAN_MOTION_DDOT":0.0},{"OBJECT_NAME":"ONEWEB-0701","OBJECT_ID":"2024-188P","EPOCH":"2026-04-26T07:27:22.300128","MEAN_MOTION":13.10376492,"ECCENTRICITY":0.0001918,"INCLINATION":87.8849,"RA_OF_ASC_NODE":46.5868,"ARG_OF_PERICENTER":53.081,"MEAN_ANOMALY":307.0492,"EPHEMERIS_TYPE":0,"CLASSIFICATION_TYPE":"U","NORAD_CAT_ID":61607,"ELEMENT_SET_NO":999,"REV_AT_EPOCH":7651,"BSTAR":-0.00036070000000000004,"MEAN_MOTION_DOT":-1.13e-06,"MEAN_MOTION_DDOT":0.0},{"OBJECT_NAME":"ONEWEB-0702","OBJECT_ID":"2024-188Q","EPOCH":"2026-04-26T12:27:39.248064","MEAN_MOTION":13.11416589,"ECCENTRICITY":0.0001517,"INCLINATION":87.8943,"RA_OF_ASC_NODE":31.2511,"ARG_OF_PERICENTER":44.9238,"MEAN_ANOMALY":315.2013,"EPHEMERIS_TYPE":0,"CLASSIFICATION_TYPE":"U","NORAD_CAT_ID":61608,"ELEMENT_SET_NO":999,"REV_AT_EPOCH":7771,"BSTAR":-0.00014968000000000002,"MEAN_MOTION_DOT":-4e-07,"MEAN_MOTION_DDOT":0.0},{"OBJECT_NAME":"ONEWEB-0704","OBJECT_ID":"2024-188R","EPOCH":"2026-04-26T07:10:36.723360","MEAN_MOTION":13.10371015,"ECCENTRICITY":0.0001319,"INCLINATION":87.8867,"RA_OF_ASC_NODE":46.5714,"ARG_OF_PERICENTER":43.2144,"MEAN_ANOMALY":316.9087,"EPHEMERIS_TYPE":0,"CLASSIFICATION_TYPE":"U","NORAD_CAT_ID":61609,"ELEMENT_SET_NO":999,"REV_AT_EPOCH":7649,"BSTAR":-1.7808e-05,"MEAN_MOTION_DOT":6e-08,"MEAN_MOTION_DDOT":0.0},{"OBJECT_NAME":"ONEWEB-0705","OBJECT_ID":"2024-188S","EPOCH":"2026-04-26T07:17:46.722336","MEAN_MOTION":13.10372036,"ECCENTRICITY":7.33e-05,"INCLINATION":87.8861,"RA_OF_ASC_NODE":46.5793,"ARG_OF_PERICENTER":86.3908,"MEAN_ANOMALY":273.7303,"EPHEMERIS_TYPE":0,"CLASSIFICATION_TYPE":"U","NORAD_CAT_ID":61610,"ELEMENT_SET_NO":999,"REV_AT_EPOCH":6866,"BSTAR":-0.0014391000000000002,"MEAN_MOTION_DOT":-4.9e-06,"MEAN_MOTION_DDOT":0.0},{"OBJECT_NAME":"ONEWEB-0706","OBJECT_ID":"2024-188T","EPOCH":"2026-04-26T12:26:08.591136","MEAN_MOTION":13.10371889,"ECCENTRICITY":0.0001381,"INCLINATION":87.8849,"RA_OF_ASC_NODE":46.5451,"ARG_OF_PERICENTER":63.99,"MEAN_ANOMALY":296.1369,"EPHEMERIS_TYPE":0,"CLASSIFICATION_TYPE":"U","NORAD_CAT_ID":61611,"ELEMENT_SET_NO":999,"REV_AT_EPOCH":7661,"BSTAR":-0.0016027,"MEAN_MOTION_DOT":-5.47e-06,"MEAN_MOTION_DDOT":0.0},{"OBJECT_NAME":"ONEWEB-0707","OBJECT_ID":"2024-188U","EPOCH":"2026-04-26T12:35:42.468576","MEAN_MOTION":13.1037289,"ECCENTRICITY":0.0001456,"INCLINATION":87.8856,"RA_OF_ASC_NODE":46.5348,"ARG_OF_PERICENTER":62.9075,"MEAN_ANOMALY":297.2201,"EPHEMERIS_TYPE":0,"CLASSIFICATION_TYPE":"U","NORAD_CAT_ID":61612,"ELEMENT_SET_NO":999,"REV_AT_EPOCH":7655,"BSTAR":-0.0018073,"MEAN_MOTION_DOT":-6.18e-06,"MEAN_MOTION_DDOT":0.0},{"OBJECT_NAME":"ONEWEB-0708","OBJECT_ID":"2024-188V","EPOCH":"2026-04-26T07:32:09.554208","MEAN_MOTION":13.1037599,"ECCENTRICITY":0.0001481,"INCLINATION":87.8852,"RA_OF_ASC_NODE":46.6,"ARG_OF_PERICENTER":91.9794,"MEAN_ANOMALY":268.1503,"EPHEMERIS_TYPE":0,"CLASSIFICATION_TYPE":"U","NORAD_CAT_ID":61613,"ELEMENT_SET_NO":999,"REV_AT_EPOCH":7650,"BSTAR":0.00024782,"MEAN_MOTION_DOT":9.9e-07,"MEAN_MOTION_DDOT":0.0}]